start=new Date('2023-02-07T00:00:00.000Z').valueOf();
sats=[{"CENTER_NAME":"EARTH","TIME_SYSTEM":"UTC","LAUNCH_DATE":"2022-10-20","MEAN_MOTION_DDOT":"0.0000000000000","GP_ID":"224612257","ECCENTRICITY":"0.00001520","NORAD_CAT_ID":"54064","MEAN_MOTION":"15.73204742","OBJECT_ID":"2022-136P","TLE_LINE1":"1 54064U 22136P   23037.20247734  .00003435  00000-0  28862-4 0  9992","OBJECT_NAME":"STARLINK-5172","TLE_LINE2":"2 54064  53.2166 330.4621 0000152  19.6555 340.4471 15.73204742 17121","REV_AT_EPOCH":"1712","ARG_OF_PERICENTER":"19.6555","SITE":"AFETR","SEMIMAJOR_AXIS":"6727.882","ELEMENT_SET_NO":"999","FILE":"3775254","MEAN_MOTION_DOT":"0.00003435","DECAY_DATE":null,"PERIOD":"91.533","COUNTRY_CODE":"US","BSTAR":"0.00002886200000","PERIAPSIS":"349.644","MEAN_ANOMALY":"340.4471","MEAN_ELEMENT_THEORY":"SGP4","RA_OF_ASC_NODE":"330.4621","INCLINATION":"53.2166","EPHEMERIS_TYPE":"0","APOAPSIS":"349.849","REF_FRAME":"TEME","RCS_SIZE":"LARGE","CLASSIFICATION_TYPE":"U","EPOCH":"2023-02-06T04:51:34.042176","OBJECT_TYPE":"PAYLOAD"},{"COUNTRY_CODE":"US","PERIOD":"95.438","BSTAR":"0.00016787000000","MEAN_ANOMALY":"268.0656","PERIAPSIS":"538.895","SITE":"AFETR","ELEMENT_SET_NO":"999","SEMIMAJOR_AXIS":"6917.883","FILE":"3776034","MEAN_MOTION_DOT":"0.00002385","DECAY_DATE":null,"RCS_SIZE":"LARGE","EPOCH":"2023-02-06T20:43:58.356768","CLASSIFICATION_TYPE":"U","OBJECT_TYPE":"PAYLOAD","RA_OF_ASC_NODE":"2.4928","MEAN_ELEMENT_THEORY":"SGP4","INCLINATION":"53.2191","EPHEMERIS_TYPE":"0","APOAPSIS":"540.600","REF_FRAME":"TEME","OBJECT_ID":"2022-136Q","TLE_LINE1":"1 54065U 22136Q   23037.86386987  .00002385  00000-0  16787-3 0  9994","OBJECT_NAME":"STARLINK-5187","CENTER_NAME":"EARTH","TIME_SYSTEM":"UTC","MEAN_MOTION_DDOT":"0.0000000000000","LAUNCH_DATE":"2022-10-20","GP_ID":"224654088","ECCENTRICITY":"0.00012320","MEAN_MOTION":"15.08839306","NORAD_CAT_ID":"54065","REV_AT_EPOCH":"1673","ARG_OF_PERICENTER":"92.0477","TLE_LINE2":"2 54065  53.2191   2.4928 0001232  92.0477 268.0656 15.08839306 16738"},{"DECAY_DATE":null,"MEAN_MOTION_DOT":"0.00000939","FILE":"3775950","SITE":"AFETR","ELEMENT_SET_NO":"999","SEMIMAJOR_AXIS":"6917.870","PERIAPSIS":"539.035","MEAN_ANOMALY":"268.8725","BSTAR":"0.00007704000000","PERIOD":"95.437","COUNTRY_CODE":"US","APOAPSIS":"540.434","REF_FRAME":"TEME","EPHEMERIS_TYPE":"0","INCLINATION":"53.2188","MEAN_ELEMENT_THEORY":"SGP4","RA_OF_ASC_NODE":"2.2158","OBJECT_TYPE":"PAYLOAD","EPOCH":"2023-02-06T22:24:39.602016","CLASSIFICATION_TYPE":"U","RCS_SIZE":"LARGE","NORAD_CAT_ID":"54066","MEAN_MOTION":"15.08843548","GP_ID":"224626867","ECCENTRICITY":"0.00010110","MEAN_MOTION_DDOT":"0.0000000000000","LAUNCH_DATE":"2022-10-20","TIME_SYSTEM":"UTC","CENTER_NAME":"EARTH","OBJECT_NAME":"STARLINK-5151","TLE_LINE1":"1 54066U 22136R   23037.93379169  .00000939  00000-0  77040-4 0  9990","OBJECT_ID":"2022-136R","TLE_LINE2":"2 54066  53.2188   2.2158 0001011  91.2383 268.8725 15.08843548 17223","ARG_OF_PERICENTER":"91.2383","REV_AT_EPOCH":"1722"},{"PERIOD":"95.437","COUNTRY_CODE":"US","PERIAPSIS":"538.868","MEAN_ANOMALY":"267.2461","BSTAR":"0.00010424000000","FILE":"3775254","SEMIMAJOR_AXIS":"6917.854","SITE":"AFETR","ELEMENT_SET_NO":"999","DECAY_DATE":null,"MEAN_MOTION_DOT":"0.00001372","EPOCH":"2023-02-06T07:50:15.552960","CLASSIFICATION_TYPE":"U","RCS_SIZE":"LARGE","OBJECT_TYPE":"PAYLOAD","INCLINATION":"53.2188","MEAN_ELEMENT_THEORY":"SGP4","RA_OF_ASC_NODE":"4.8235","REF_FRAME":"TEME","APOAPSIS":"540.570","EPHEMERIS_TYPE":"0","TLE_LINE1":"1 54067U 22136S   23037.32656890  .00001372  00000-0  10424-3 0  9997","OBJECT_ID":"2022-136S","OBJECT_NAME":"STARLINK-5174","LAUNCH_DATE":"2022-10-20","MEAN_MOTION_DDOT":"0.0000000000000","TIME_SYSTEM":"UTC","CENTER_NAME":"EARTH","NORAD_CAT_ID":"54067","MEAN_MOTION":"15.08848657","GP_ID":"224612008","ECCENTRICITY":"0.00012300","REV_AT_EPOCH":"1665","ARG_OF_PERICENTER":"92.8672","TLE_LINE2":"2 54067  53.2188   4.8235 0001230  92.8672 267.2461 15.08848657 16651"},{"ARG_OF_PERICENTER":"84.8396","REV_AT_EPOCH":"1664","TLE_LINE2":"2 54068  53.2190   5.1412 0001381  84.8396 275.2753 15.08857350 16649","OBJECT_NAME":"STARLINK-5222","TLE_LINE1":"1 54068U 22136T   23037.26402608  .00013152  00000-0  84249-3 0  9992","OBJECT_ID":"2022-136T","NORAD_CAT_ID":"54068","MEAN_MOTION":"15.08857350","GP_ID":"224612757","ECCENTRICITY":"0.00013810","LAUNCH_DATE":"2022-10-20","MEAN_MOTION_DDOT":"0.0000000000000","CENTER_NAME":"EARTH","TIME_SYSTEM":"UTC","OBJECT_TYPE":"PAYLOAD","EPOCH":"2023-02-06T06:20:11.853312","CLASSIFICATION_TYPE":"U","RCS_SIZE":"LARGE","REF_FRAME":"TEME","APOAPSIS":"540.648","EPHEMERIS_TYPE":"0","INCLINATION":"53.2190","MEAN_ELEMENT_THEORY":"SGP4","RA_OF_ASC_NODE":"5.1412","PERIAPSIS":"538.737","MEAN_ANOMALY":"275.2753","BSTAR":"0.00084249000000","PERIOD":"95.436","COUNTRY_CODE":"US","DECAY_DATE":null,"MEAN_MOTION_DOT":"0.00013152","FILE":"3775254","SITE":"AFETR","ELEMENT_SET_NO":"999","SEMIMAJOR_AXIS":"6917.827"},{"INCLINATION":"53.2208","RA_OF_ASC_NODE":"4.7498","MEAN_ELEMENT_THEORY":"SGP4","APOAPSIS":"540.791","REF_FRAME":"TEME","EPHEMERIS_TYPE":"0","CLASSIFICATION_TYPE":"U","EPOCH":"2023-02-06T07:34:21.059328","RCS_SIZE":"LARGE","OBJECT_TYPE":"PAYLOAD","FILE":"3775254","SEMIMAJOR_AXIS":"6917.852","SITE":"AFETR","ELEMENT_SET_NO":"999","DECAY_DATE":null,"MEAN_MOTION_DOT":"0.00001888","COUNTRY_CODE":"US","PERIOD":"95.437","MEAN_ANOMALY":"259.6848","PERIAPSIS":"538.644","BSTAR":"0.00013665000000","TLE_LINE2":"2 54069  53.2208   4.7498 0001552 100.4320 259.6848 15.08849168 16651","REV_AT_EPOCH":"1665","ARG_OF_PERICENTER":"100.4320","MEAN_MOTION_DDOT":"0.0000000000000","LAUNCH_DATE":"2022-10-20","CENTER_NAME":"EARTH","TIME_SYSTEM":"UTC","MEAN_MOTION":"15.08849168","NORAD_CAT_ID":"54069","ECCENTRICITY":"0.00015520","GP_ID":"224611508","TLE_LINE1":"1 54069U 22136U   23037.31552152  .00001888  00000-0  13665-3 0  9996","OBJECT_ID":"2022-136U","OBJECT_NAME":"STARLINK-5223"},{"ARG_OF_PERICENTER":"88.2622","REV_AT_EPOCH":"1663","TLE_LINE2":"2 54070  53.2180   5.4008 0001193  88.2622 271.8507 15.08845782 16630","OBJECT_NAME":"STARLINK-5181","OBJECT_ID":"2022-136V","TLE_LINE1":"1 54070U 22136V   23037.19137095  .00002040  00000-0  14621-3 0  9993","GP_ID":"224611758","ECCENTRICITY":"0.00011930","NORAD_CAT_ID":"54070","MEAN_MOTION":"15.08845782","TIME_SYSTEM":"UTC","CENTER_NAME":"EARTH","MEAN_MOTION_DDOT":"0.0000000000000","LAUNCH_DATE":"2022-10-20","OBJECT_TYPE":"PAYLOAD","RCS_SIZE":"LARGE","EPOCH":"2023-02-06T04:35:34.450080","CLASSIFICATION_TYPE":"U","EPHEMERIS_TYPE":"0","APOAPSIS":"540.553","REF_FRAME":"TEME","MEAN_ELEMENT_THEORY":"SGP4","RA_OF_ASC_NODE":"5.4008","INCLINATION":"53.2180","BSTAR":"0.00014621000000","PERIAPSIS":"538.902","MEAN_ANOMALY":"271.8507","PERIOD":"95.437","COUNTRY_CODE":"US","MEAN_MOTION_DOT":"0.00002040","DECAY_DATE":null,"SITE":"AFETR","ELEMENT_SET_NO":"999","SEMIMAJOR_AXIS":"6917.863","FILE":"3775254"},{"INCLINATION":"53.2199","RA_OF_ASC_NODE":"4.7736","MEAN_ELEMENT_THEORY":"SGP4","REF_FRAME":"TEME","APOAPSIS":"540.655","EPHEMERIS_TYPE":"0","CLASSIFICATION_TYPE":"U","EPOCH":"2023-02-06T07:39:39.172896","RCS_SIZE":"LARGE","OBJECT_TYPE":"PAYLOAD","FILE":"3775254","ELEMENT_SET_NO":"999","SITE":"AFETR","SEMIMAJOR_AXIS":"6917.856","DECAY_DATE":null,"MEAN_MOTION_DOT":"0.00001769","COUNTRY_CODE":"US","PERIOD":"95.437","MEAN_ANOMALY":"261.7543","PERIAPSIS":"538.787","BSTAR":"0.00012915000000","TLE_LINE2":"2 54071  53.2199   4.7736 0001350  98.3602 261.7543 15.08848079 16658","REV_AT_EPOCH":"1665","ARG_OF_PERICENTER":"98.3602","LAUNCH_DATE":"2022-10-20","MEAN_MOTION_DDOT":"0.0000000000000","CENTER_NAME":"EARTH","TIME_SYSTEM":"UTC","MEAN_MOTION":"15.08848079","NORAD_CAT_ID":"54071","GP_ID":"224612507","ECCENTRICITY":"0.00013500","TLE_LINE1":"1 54071U 22136W   23037.31920339  .00001769  00000-0  12915-3 0  9990","OBJECT_ID":"2022-136W","OBJECT_NAME":"STARLINK-5168"},{"REV_AT_EPOCH":"1674","ARG_OF_PERICENTER":"93.7043","TLE_LINE2":"2 54072  53.2172   2.1307 0001183  93.7043 266.4085 15.08841257 16742","TLE_LINE1":"1 54072U 22136X   23037.91905607  .00001122  00000-0  88588-4 0  9991","OBJECT_ID":"2022-136X","OBJECT_NAME":"STARLINK-5144","MEAN_MOTION_DDOT":"0.0000000000000","LAUNCH_DATE":"2022-10-20","TIME_SYSTEM":"UTC","CENTER_NAME":"EARTH","MEAN_MOTION":"15.08841257","NORAD_CAT_ID":"54072","GP_ID":"224655334","ECCENTRICITY":"0.00011830","EPOCH":"2023-02-06T22:03:26.444448","CLASSIFICATION_TYPE":"U","RCS_SIZE":"LARGE","OBJECT_TYPE":"PAYLOAD","INCLINATION":"53.2172","RA_OF_ASC_NODE":"2.1307","MEAN_ELEMENT_THEORY":"SGP4","APOAPSIS":"540.560","REF_FRAME":"TEME","EPHEMERIS_TYPE":"0","COUNTRY_CODE":"US","PERIOD":"95.437","MEAN_ANOMALY":"266.4085","PERIAPSIS":"538.923","BSTAR":"0.00008858800000","FILE":"3776034","ELEMENT_SET_NO":"999","SITE":"AFETR","SEMIMAJOR_AXIS":"6917.877","DECAY_DATE":null,"MEAN_MOTION_DOT":"0.00001122"},{"EPHEMERIS_TYPE":"0","APOAPSIS":"540.720","REF_FRAME":"TEME","MEAN_ELEMENT_THEORY":"SGP4","RA_OF_ASC_NODE":"357.7385","INCLINATION":"53.2184","OBJECT_TYPE":"PAYLOAD","RCS_SIZE":"LARGE","CLASSIFICATION_TYPE":"U","EPOCH":"2023-02-06T21:41:43.632672","MEAN_MOTION_DOT":"0.00004186","DECAY_DATE":null,"SITE":"AFETR","ELEMENT_SET_NO":"999","SEMIMAJOR_AXIS":"6917.850","FILE":"3776034","BSTAR":"0.00028084000000","PERIAPSIS":"538.710","MEAN_ANOMALY":"249.0368","PERIOD":"95.437","COUNTRY_CODE":"US","TLE_LINE2":"2 54073  53.2184 357.7385 0001453 111.0780 249.0368 15.08849858 16806","ARG_OF_PERICENTER":"111.0780","REV_AT_EPOCH":"1680","GP_ID":"224654089","ECCENTRICITY":"0.00014530","NORAD_CAT_ID":"54073","MEAN_MOTION":"15.08849858","CENTER_NAME":"EARTH","TIME_SYSTEM":"UTC","MEAN_MOTION_DDOT":"0.0000000000000","LAUNCH_DATE":"2022-10-20","OBJECT_NAME":"STARLINK-5146","OBJECT_ID":"2022-136Y","TLE_LINE1":"1 54073U 22136Y   23037.90397723  .00004186  00000-0  28084-3 0  9992"}];
